satname,norad_id,inclination_deg,eccentricity,mean_motion_rev_per_day,perigee_km,apogee_km,l1,l2
STARLINK-1548,46054,53.1584,0.000253,15.3170297,468.99837818461765,472.46390546438124,1 46054U 20055AD  26138.74939047 -.00002023  00000+0 -53411-4 0  9990,2 46054  53.1584 148.2699 0002530  87.5772 272.5519 15.31702970319809
STARLINK-1554,46055,53.1576,0.0001389,15.31711215,469.75525972715786,471.65786846926585,1 46055U 20055AE  26138.40448465  .00001427  00000+0  57718-4 0  9992,2 46055  53.1576 149.8186 0001389  91.8831 268.2329 15.31711215319751
STARLINK-1564,46058,53.1581,0.0001479,15.30202164,474.19499829756205,476.22221792844175,1 46058U 20055AH  26138.76570180  .00000643  00000+0  33854-4 0  9998,2 46058  53.1581 148.8731 0001479  59.2808 300.8338 15.30202164319791
STARLINK-1570,46059,53.1596,0.0001382,15.31696373,469.8042908503012,471.69732344019667,1 46059U 20055AJ  26138.75868658  .00000934  00000+0  41852-4 0  9998,2 46059  53.1596 148.0535 0001382  87.5826 272.5334 15.31696373319767
STARLINK-1572,46060,53.1599,0.0001299,15.30192983,474.3457678411378,476.1262741519922,1 46060U 20055AK  26138.74670579 -.00000144  00000+0  72561-5 0  9998,2 46060  53.1599 148.7082 0001299  84.0664 276.0485 15.30192983319768
STARLINK-1573,46061,53.1591,0.0001324,15.31696631,469.8432454139074,471.65683070158593,1 46061U 20055AL  26138.74470188 -.00000673  00000+0 -99099-5 0  9996,2 46061  53.1591 148.0858 0001324  95.7821 264.3331 15.31696631319803
STARLINK-1577,46063,53.1594,0.0001211,15.31701249,469.9068734709281,471.5656705774127,1 46063U 20055AN  26138.44641900 -.00000862  00000+0 -16007-4 0  9994,2 46063  53.1594 149.4711 0001211  82.7019 277.4120 15.31701249319758
STARLINK-1583,46064,53.1597,0.0001576,15.30209177,474.1075847206448,476.26775265621563,1 46064U 20055AP  26138.44957699  .00001425  00000+0  60235-4 0  9996,2 46064  53.1597 149.8362 0001576  88.1813 271.9368 15.30209177319748
STARLINK-1536,46070,53.1598,0.0001263,15.31710103,469.844869513101,471.5748882347052,1 46070U 20055AV  26138.26599398  .00001304  00000+0  53762-4 0  9994,2 46070  53.1598 138.1964 0001263  87.4627 272.6519 15.31710103319892
STARLINK-1542,46073,53.1596,0.0001144,15.31701276,469.9526804455727,471.51970263179646,1 46073U 20055AY  26138.29037722  .00000369  00000+0  23665-4 0  9997,2 46073  53.1596 141.0482 0001144  89.7516 270.3616 15.31701276319840
STARLINK-1549,46074,53.0497,0.0003846,15.27722053,479.9851226214787,485.2624198066969,1 46074U 20055AZ  26138.40270216  .00019810  00000+0  73243-3 0  9995,2 46074  53.0497 137.4621 0003846  42.0542 318.0751 15.27722053319892
STARLINK-1551,46075,53.1598,0.0001214,15.30199423,474.3847950874824,476.0487893882382,1 46075U 20055BA  26138.69132962  .00000477  00000+0  28239-4 0  9997,2 46075  53.1598 135.9125 0001214 113.7726 246.3402 15.30199423319951
STARLINK-1552,46076,53.1581,0.0001443,15.31714532,469.70838973281025,471.68496313182914,1 46076U 20055BB  26138.69972917  .00001527  00000+0  60949-4 0  9991,2 46076  53.1581 135.6952 0001443  85.8913 274.2253 15.31714532319948
STARLINK-1559,46077,53.0238,0.0003127,15.36262319,455.03622645795076,459.3110297247604,1 46077U 20055BC  26138.89955324  .00041835  00000+0  11706-2 0  9998,2 46077  53.0238 105.3388 0003127  39.4266 320.6963 15.36262319320358
STARLINK-1566,46079,53.1609,0.0001343,15.31698639,469.8242475735069,471.6638570241548,1 46079U 20055BE  26138.70436877 -.00000279  00000+0  27859-5 0  9994,2 46079  53.1609 135.5267 0001343  96.5462 263.5693 15.31698639319967
STARLINK-1568,46080,53.0589,0.0004505,15.52267375,407.04957951483175,413.16578797488546,1 46080U 20055BF  26138.48039658  .00026391  00000+0  43303-3 0  9999,2 46080  53.0589  58.4565 0004505  36.6151 323.5166 15.52267375321015
STARLINK-1578,46082,53.1605,0.0001534,15.31703795,469.67806655577715,471.7792985471842,1 46082U 20055BH  26138.38250205 -.00000277  00000+0  28469-5 0  9997,2 46082  53.1605 137.5445 0001534  79.3437 280.7737 15.31703795319904
STARLINK-1579,46083,53.1611,0.000125,15.31698668,469.88785573048244,471.60007597194453,1 46083U 20055BJ  26138.69506156  .00001429  00000+0  57793-4 0  9991,2 46083  53.1611 135.6235 0001250  80.2128 279.9015 15.31698668319957
STARLINK-1622,46128,53.0181,0.0005743,15.78035472,332.1513093569765,339.8631754337921,1 46128U 20057M   26138.55165876  .00090578  00000+0  51992-3 0  9995,2 46128  53.0181 238.0735 0005743 357.7143   2.3849 15.78035472318345
STARLINK-1623,46129,53.0437,0.0002699,15.70427588,355.85607479443115,359.4920656101258,1 46129U 20057N   26138.66056153  .00068224  00000+0  54671-3 0  9995,2 46129  53.0437 274.3870 0002699 324.5510  35.5327 15.70427588317859
STARLINK-1624,46130,53.0285,0.0012897,16.05239832,251.3728231675168,268.4950633585695,1 46130U 20057P   26138.84672404  .00593602  18043-3  82425-3 0  9991,2 46130  53.0285 239.1821 0012897 324.8989  35.1192 16.05239832319604
STARLINK-1596,46141,53.0361,0.0004754,15.55950178,396.1699476014119,402.61402216023725,1 46141U 20057AA  26138.62107095  .00058525  00000+0  82843-3 0  9992,2 46141  53.0361 254.9013 0004754 320.6390  39.4274 15.55950178318123
STARLINK-1597,46142,53.0444,0.0001732,15.70064975,357.54431713921804,359.8779613346496,1 46142U 20057AB  26138.50632527  .00065958  00000+0  53693-3 0  9992,2 46142  53.0444 314.8563 0001732  52.5365 307.5809 15.70064975317263
STARLINK-1606,46144,53.0375,0.0005274,15.81706813,322.07807718028016,329.14919335035665,1 46144U 20057AD  26138.91668981  .00100215  00000+0  48589-3 0  9996,2 46144  53.0375 267.8612 0005274 297.3751  56.6691 15.81706813  5882
STARLINK-1608,46146,53.1592,0.0001141,15.33970143,463.20047845988665,464.7618498249449,1 46146U 20057AF  26138.27621471  .00025165  00000+0  76373-3 0  9992,2 46146  53.1592 345.4483 0001141 210.3105 149.7831 15.33970143316849
STARLINK-1667,46155,53.0145,0.0007184,15.81492319,321.40335405015503,331.0361738485972,1 46155U 20057AQ  26138.91668981  .00072725  00000+0  35791-3 0  9993,2 46155  53.0145 236.0923 0007184 355.9799 345.5780 15.81492319  5946
STARLINK-1545,46156,53.0389,0.0002853,15.76575531,338.23483127687723,342.06828672864503,1 46156U 20057AR  26138.09333627  .00125375  00000+0  76372-3 0  9999,2 46156  53.0389 275.6238 0002853 263.6512  96.4182 15.76575531319039
STARLINK-1595,46159,53.0431,8.17e-05,15.68352672,363.06290357419584,364.1645056393272,1 46159U 20057AU  26138.51310747  .00057187  00000+0  50074-3 0  9993,2 46159  53.0431 317.2861 0000817  27.6913 332.4146 15.68352672318498
